#name,street,city,state,zip
Abridged Beer Company, 100 Lockett Rd, Knoxville, TN, 37919
Albright Grove Brewing Company, 2924 Sutherland Ave, Knoxville, TN, 37919
alliance brewing co, 1130 Sevier Ave, Knoxville, TN, 37920
balter beerworks, 100 S Broadway, Knoxville, TN, 37902
Blackberry Farm Brewery, 108 Everett Avenue, Maryville, TN, 37804
Blackhorse Brewery,430 S Gay St, Knoxville, TN, 37902
Clinch River Brewing,2045 Norris Fwy, Norris, TN, 37828
crafty bastard brewery, 6 Emory Pl, Knoxville, TN, 37917
Downtown Grill & Brewery, 424 S Gay St, Knoxville, TN, 37902
Elkmont Exchange Brewery, 745 N Broadway, Knoxville, TN, 37917
Elst Brewing Company, 2419 N Central St, Knoxville, TN, 37917
Fanatic Brewing Co.,2735 N Central St, Knoxville, TN, 37917
geezers brewing co, 225 E 5th Ave, Knoxville, TN, 37917
Hexagon Brewing Company, 1002 Dutch Valley Dr, Knoxville, TN, 37918
home, 10936 Parkside Dr, Knoxville, TN, 37934
last days of autumn brewing, 808 E Magnolia Ave, Knoxville, TN, 37917
next level brewing company, 700 N Broadway, Knoxville, TN, 37917
pretentious beer co, 131 S Central St, Knoxville, TN, 37902
printshop beer co, 1532 Island Home Ave, Knoxville, TN, 37920
round 6 brewing, 427 Whitecrest Dr, Maryville, TN, 37801
Schulz Br√§u Brewing Company,126 Bernard Ave, Knoxville, TN, 37917
Smoky Mountain Brewery,1004 Parkway, Gatlinburg, TN, 37738
Yee-Haw Brewing Co.,131 The Island Dr, Pigeon Forge, TN, 37863
